{
  "restaurants": [
    {
      "restaurant_id": "40356151",
      "name": "Brunos On The Boulevard",
      "address": {
        "building": "8825",
        "street": "Astoria Boulevard",
        "zipcode": "11369"
      },
      "cuisine": "American",
      "id": "510d"
    },
    {
      "restaurant_id": "40356166",
      "name": "Take It Cheesy",
      "address": {
        "building": "8825",
        "street": "Astoria Boulevard",
        "zipcode": "11369"
      },
      "cuisine": "American",
      "id": "0c5b"
    },
    {
      "restaurant_id": "40356290",
      "name": "Wine O’Clock Tapas Bar",
      "address": {
        "building": "8825",
        "street": "Astoria Boulevard",
        "zipcode": "11369"
      },
      "cuisine": "Mexican",
      "id": "e147"
    },
    {
      "restaurant_id": "40356378",
      "name": "Basic B Burgers",
      "address": {
        "building": "8825",
        "street": "Astoria Boulevard",
        "zipcode": "11369"
      },
      "cuisine": "American",
      "id": "2035"
    },
    {
      "restaurant_id": "4034356451",
      "name": "Vincent Van Doughnut",
      "address": {
        "building": "8825",
        "street": "Astoria Boulevard",
        "zipcode": "11369"
      },
      "cuisine": "American",
      "id": "37e34b"
    },
    {
      "id": "1de4343",
      "restaurant_id": "1d34e43",
      "name": "Asik's Resto",
      "address": {
        "building": "123",
        "street": "Swamiji park, Michael nagar",
        "zipcode": "100933"
      },
      "cuisine": "Bengali"
    },
    {
      "restaurant_id": "403e56378",
      "name": "Basic B Burgers",
      "address": {
        "building": "8825",
        "street": "Astoria Boulevard",
        "zipcode": "11369"
      },
      "cuisine": "American",
      "id": "2035"
    },
    {
      "restaurant_id": "40356r451",
      "name": "Vincent Van Doughnut",
      "address": {
        "building": "8825",
        "street": "Astoria Boulevard",
        "zipcode": "11369"
      },
      "cuisine": "American",
      "id": "37eb"
    },
    {
      "id": "1de433",
      "restaurant_id": "1de433",
      "name": "Asik's Resto",
      "address": {
        "building": "123",
        "street": "Swamiji park, Michael nagar",
        "zipcode": "100933"
      },
      "cuisine": "Bengali"
    },
    {
      "restaurant_id": "40356278",
      "name": "Wingman’s Pub",
      "address": {
        "building": "8825",
        "street": "Astoria Boulevard",
        "zipcode": "11369"
      },
      "cuisine": "American",
      "id": "c22b"
    },
    {
      "restaurant_id": "40356290",
      "name": "Wine O’Clock Tapas Bar",
      "address": {
        "building": "8825",
        "street": "Astoria Boulevard",
        "zipcode": "11369"
      },
      "cuisine": "Mexican",
      "id": "e147"
    },
    {
      "restaurant_id": "40356311",
      "name": "Lettuce Eat Bistro ",
      "address": {
        "building": "8825",
        "street": "Astoria Boulevard",
        "zipcode": "11369"
      },
      "cuisine": "Chinese",
      "id": "e082"
    },
    {
      "restaurant_id": "40356378",
      "name": "Basic B Burgers",
      "address": {
        "building": "8825",
        "street": "Astoria Boulevard",
        "zipcode": "11369"
      },
      "cuisine": "American",
      "id": "2035"
    },
    {
      "restaurant_id": "4034356451",
      "name": "Vincent Van Doughnut",
      "address": {
        "building": "8825",
        "street": "Astoria Boulevard",
        "zipcode": "11369"
      },
      "cuisine": "American",
      "id": "37e34b"
    },
    {
      "id": "1de4343",
      "restaurant_id": "1d34e43",
      "name": "Asik's Resto",
      "address": {
        "building": "123",
        "street": "Swamiji park, Michael nagar",
        "zipcode": "100933"
      },
      "cuisine": "Bengali"
    },
    {
      "restaurant_id": "403e56378",
      "name": "Basic B Burgers",
      "address": {
        "building": "8825",
        "street": "Astoria Boulevard",
        "zipcode": "11369"
      },
      "cuisine": "American",
      "id": "2035"
    },
    {
      "restaurant_id": "40356r451",
      "name": "Vincent Van Doughnut",
      "address": {
        "building": "8825",
        "street": "Astoria Boulevard",
        "zipcode": "11369"
      },
      "cuisine": "American",
      "id": "37eb"
    },
    {
      "id": "1de433",
      "restaurant_id": "1de433",
      "name": "Asik's Resto",
      "address": {
        "building": "123",
        "street": "Swamiji park, Michael nagar",
        "zipcode": "100933"
      },
      "cuisine": "Bengali"
    },
    {
      "restaurant_id": "40356278",
      "name": "Wingman’s Pub",
      "address": {
        "building": "8825",
        "street": "Astoria Boulevard",
        "zipcode": "11369"
      },
      "cuisine": "American",
      "id": "c22b"
    },
    {
      "restaurant_id": "40356290",
      "name": "Wine O’Clock Tapas Bar",
      "address": {
        "building": "8825",
        "street": "Astoria Boulevard",
        "zipcode": "11369"
      },
      "cuisine": "Mexican",
      "id": "e147"
    },
    {
      "restaurant_id": "40356311",
      "name": "Lettuce Eat Bistro ",
      "address": {
        "building": "8825",
        "street": "Astoria Boulevard",
        "zipcode": "11369"
      },
      "cuisine": "Chinese",
      "id": "e082"
    },
    {
      "restaurant_id": "40356378",
      "name": "Basic B Burgers",
      "address": {
        "building": "8825",
        "street": "Astoria Boulevard",
        "zipcode": "11369"
      },
      "cuisine": "American",
      "id": "2035"
    },
    {
      "restaurant_id": "4034356451",
      "name": "Vincent Van Doughnut",
      "address": {
        "building": "8825",
        "street": "Astoria Boulevard",
        "zipcode": "11369"
      },
      "cuisine": "American",
      "id": "37e34b"
    },
    {
      "id": "1de4343",
      "restaurant_id": "1d34e43",
      "name": "Asik's Resto",
      "address": {
        "building": "123",
        "street": "Swamiji park, Michael nagar",
        "zipcode": "100933"
      },
      "cuisine": "Bengali"
    },
    {
      "restaurant_id": "403e56378",
      "name": "Basic B Burgers",
      "address": {
        "building": "8825",
        "street": "Astoria Boulevard",
        "zipcode": "11369"
      },
      "cuisine": "American",
      "id": "2035"
    },
    {
      "restaurant_id": "40356r451",
      "name": "Vincent Van Doughnut",
      "address": {
        "building": "8825",
        "street": "Astoria Boulevard",
        "zipcode": "11369"
      },
      "cuisine": "American",
      "id": "37eb"
    },
    {
      "id": "1de433",
      "restaurant_id": "1de433",
      "name": "Asik's Resto",
      "address": {
        "building": "123",
        "street": "Swamiji park, Michael nagar",
        "zipcode": "100933"
      },
      "cuisine": "Bengali"
    },
    {
      "restaurant_id": "40356278",
      "name": "Wingman’s Pub",
      "address": {
        "building": "8825",
        "street": "Astoria Boulevard",
        "zipcode": "11369"
      },
      "cuisine": "American",
      "id": "c22b"
    },
    {
      "restaurant_id": "40356290",
      "name": "Wine O’Clock Tapas Bar",
      "address": {
        "building": "8825",
        "street": "Astoria Boulevard",
        "zipcode": "11369"
      },
      "cuisine": "Mexican",
      "id": "e147"
    },
    {
      "restaurant_id": "40356311",
      "name": "Lettuce Eat Bistro ",
      "address": {
        "building": "8825",
        "street": "Astoria Boulevard",
        "zipcode": "11369"
      },
      "cuisine": "Chinese",
      "id": "e082"
    },
    {
      "restaurant_id": "40356378",
      "name": "Basic B Burgers",
      "address": {
        "building": "8825",
        "street": "Astoria Boulevard",
        "zipcode": "11369"
      },
      "cuisine": "American",
      "id": "2035"
    },
    {
      "restaurant_id": "4034356451",
      "name": "Vincent Van Doughnut",
      "address": {
        "building": "8825",
        "street": "Astoria Boulevard",
        "zipcode": "11369"
      },
      "cuisine": "American",
      "id": "37e34b"
    },
    {
      "id": "1de4343",
      "restaurant_id": "1d34e43",
      "name": "Asik's Resto",
      "address": {
        "building": "123",
        "street": "Swamiji park, Michael nagar",
        "zipcode": "100933"
      },
      "cuisine": "Bengali"
    },
    {
      "restaurant_id": "403e56378",
      "name": "Basic B Burgers",
      "address": {
        "building": "8825",
        "street": "Astoria Boulevard",
        "zipcode": "11369"
      },
      "cuisine": "American",
      "id": "2035"
    },
    {
      "restaurant_id": "40356r451",
      "name": "Vincent Van Doughnut",
      "address": {
        "building": "8825",
        "street": "Astoria Boulevard",
        "zipcode": "11369"
      },
      "cuisine": "American",
      "id": "37eb"
    },
    {
      "id": "1de433",
      "restaurant_id": "1de433",
      "name": "Asik's Resto",
      "address": {
        "building": "123",
        "street": "Swamiji park, Michael nagar",
        "zipcode": "100933"
      },
      "cuisine": "Bengali"
    },
    {
      "restaurant_id": "40356278",
      "name": "Wingman’s Pub",
      "address": {
        "building": "8825",
        "street": "Astoria Boulevard",
        "zipcode": "11369"
      },
      "cuisine": "American",
      "id": "c22b"
    },
    {
      "restaurant_id": "40356290",
      "name": "Wine O’Clock Tapas Bar",
      "address": {
        "building": "8825",
        "street": "Astoria Boulevard",
        "zipcode": "11369"
      },
      "cuisine": "Mexican",
      "id": "e147"
    },
    {
      "restaurant_id": "40356311",
      "name": "Lettuce Eat Bistro ",
      "address": {
        "building": "8825",
        "street": "Astoria Boulevard",
        "zipcode": "11369"
      },
      "cuisine": "Chinese",
      "id": "e082"
    },
    {
      "restaurant_id": "40356378",
      "name": "Basic B Burgers",
      "address": {
        "building": "8825",
        "street": "Astoria Boulevard",
        "zipcode": "11369"
      },
      "cuisine": "American",
      "id": "2035"
    },
    {
      "restaurant_id": "4034356451",
      "name": "Vincent Van Doughnut",
      "address": {
        "building": "8825",
        "street": "Astoria Boulevard",
        "zipcode": "11369"
      },
      "cuisine": "American",
      "id": "37e34b"
    },
    {
      "id": "1de4343",
      "restaurant_id": "1d34e43",
      "name": "Asik's Resto",
      "address": {
        "building": "123",
        "street": "Swamiji park, Michael nagar",
        "zipcode": "100933"
      },
      "cuisine": "Bengali"
    },
    {
      "restaurant_id": "403e56378",
      "name": "Basic B Burgers",
      "address": {
        "building": "8825",
        "street": "Astoria Boulevard",
        "zipcode": "11369"
      },
      "cuisine": "American",
      "id": "2035"
    },
    {
      "restaurant_id": "40356r451",
      "name": "Vincent Van Doughnut",
      "address": {
        "building": "8825",
        "street": "Astoria Boulevard",
        "zipcode": "11369"
      },
      "cuisine": "American",
      "id": "37eb"
    },
    {
      "id": "1de433",
      "restaurant_id": "1de433",
      "name": "Asik's Resto",
      "address": {
        "building": "123",
        "street": "Swamiji park, Michael nagar",
        "zipcode": "100933"
      },
      "cuisine": "Bengali"
    }
  ]
}